M2 PATHFINDER           
1 45727U 20037E   26198.50302183  .00000634  00000+0  49423-4 0  9993
2 45727  97.8140  30.0778 0012700  55.2846 304.9574 15.04794835330050
NETSAT-4                
1 46504U 20068U   26198.51296889  .00009879  00000+0  21295-3 0  9993
2 46504  97.8604 209.2132 0005022 185.0882 175.0315 15.44804846320455
NETSAT-3                
1 46505U 20068V   26198.47725588  .00009627  00000+0  21579-3 0  9998
2 46505  97.8655 207.3542 0004131 201.2303 158.8772 15.43656334320356
NETSAT-1                
1 46506U 20068W   26198.44836994  .00006461  00000+0  19126-3 0  9998
2 46506  97.8756 201.2899 0002578 249.1069 110.9897 15.35276284319943
NETSAT-2                
1 46507U 20068X   26198.70225887  .00013283  00000+0  26287-3 0  9997
2 46507  97.8615 209.4309 0002528 197.5532 162.5629 15.47232385320451
GREENCUBE (IO-117)      
1 53109U 22080E   26198.22212605 -.00000003  00000+0  00000+0 0  9998
2 53109  70.1407 287.8015 0009072 282.9900  76.9746  6.42583336 93997
SITRO-AIS 5 (KATYS)     
1 57176U 23091L   26198.68190537  .00005875  00000+0  20413-3 0  9993
2 57176  97.5040 262.8830 0010403   3.5839 356.5473 15.30095961169006
SITRO-AIS 6 (CHIRKIN)   
1 57192U 23091AC  26198.60122850  .00004957  00000+0  19273-3 0  9998
2 57192  97.5048 261.7566 0010917   8.2411 351.9005 15.26462318168923
SITRO-AIS 8 (ANOKHIN)   
1 57193U 23091AD  26198.70967589  .00006997  00000+0  22250-3 0  9991
2 57193  97.5036 264.6269 0009225 358.8058   1.3160 15.32896815169125
SITRO-AIS 7 (FARTUSHNIY)
1 57194U 23091AE  26198.67630315  .00004761  00000+0  18704-3 0  9998
2 57194  97.5045 261.6407 0010884   9.2316 350.9120 15.26136431168924
SITRO-AIS 10 (BURDAEV)  
1 57199U 23091AK  26198.67470963  .00010851  00000+0  27683-3 0  9997
2 57199  97.5062 269.9680 0004664 330.2498  29.8481 15.39683985169455
SITRO-AIS 9 (SHCHUKIN)  
1 57201U 23091AM  26198.71107513  .00010187  00000+0  26443-3 0  9999
2 57201  97.5060 269.7107 0004932 330.6820  29.4147 15.39168650169441
SITRO-AIS 12 (SMIRENNIY)
1 57204U 23091AQ  26198.69587784  .00010095  00000+0  25960-3 0  9992
2 57204  97.5073 270.1816 0004500 322.7296  37.3637 15.39463186169467
SITRO-AIS 11 (SHEFFER)  
1 57208U 23091AU  26198.70067584  .00010706  00000+0  27118-3 0  9995
2 57208  97.5072 270.4528 0004430 322.1177  37.9756 15.39909037169487
SITRO-AIS 25            
1 59066U 24039R   26198.72557605  .00001597  00000+0  12634-3 0  9997
2 59066  95.3890 256.0776 0142983 220.5741 138.4760 14.93651167129287
SITRO-AIS 26            
1 59067U 24039S   26198.73116007  .00001371  00000+0  10939-3 0  9992
2 59067  95.3891 255.9727 0143311 221.1716 137.8629 14.93442334129278
SITRO-AIS 27            
1 59068U 24039T   26198.69279285  .00001500  00000+0  11837-3 0  9998
2 59068  95.3896 256.2324 0142419 219.8134 139.2576 14.93865854129292
SITRO-AIS 28            
1 59071U 24039U   26198.73653429  .00001342  00000+0  10616-3 0  9991
2 59071  95.3895 256.3114 0142288 219.5105 139.5681 14.93900936129305
GRBBETA                 
1 60237U 24128C   26198.15030373  .00001679  00000+0  12511-3 0  9998
2 60237  61.9898 111.1258 0036777 141.0827 219.2924 15.06815785110785
OOV-CUBE (TUBSAT-30)    
1 60240U 24128F   26198.72882110  .00000883  00000+0  80211-4 0  9998
2 60240  61.9940 119.0668 0040796 140.5650 219.8424 15.02879435110704
ROBUSTA-3A (MEDITERRAN*)
1 60243U 24128J   26198.69152759  .00003530  00000+0  21425-3 0  9999
2 60243  61.9863 100.3428 0037827 134.1389 226.2828 15.12006489111036
CROCUBE                 
1 62394U 24247T   26198.08492527  .00025129  00000+0  43824-3 0  9998
2 62394  44.9718  90.7884 0007819 184.7174 175.3645 15.50291791 87985
FORESAIL-1 PRIME        
1 66778U 25276DS  26198.17054758  .00002254  00000+0  11112-3 0  9990
2 66778  97.4189 270.8955 0002737  40.2765 319.8672 15.18947700 34952
KNACKSAT-2              
1 67683U 98067XZ  26198.24140567  .00034112  00000+0  37883-3 0  9997
2 67683  51.6276 143.0009 0007952 335.1166  24.9444 15.62548905 24978
