OBJECT_NAME,OBJECT_ID,EPOCH,MEAN_MOTION,ECCENTRICITY,INCLINATION,RA_OF_ASC_NODE,ARG_OF_PERICENTER,MEAN_ANOMALY,EPHEMERIS_TYPE,CLASSIFICATION_TYPE,NORAD_CAT_ID,ELEMENT_SET_NO,REV_AT_EPOCH,BSTAR,MEAN_MOTION_DOT,MEAN_MOTION_DDOT
M2 PATHFINDER,2020-037E,2026-07-17T12:04:21.086112,15.04794835,.00127,97.8140,30.0778,55.2846,304.9574,0,U,45727,999,33005,.49423E-4,.634E-5,0
NETSAT-4,2020-068U,2026-07-17T12:18:40.512096,15.44804846,.0005022,97.8604,209.2132,185.0882,175.0315,0,U,46504,999,32045,.21295E-3,.9879E-4,0
NETSAT-3,2020-068V,2026-07-17T11:27:14.908032,15.43656334,.0004131,97.8655,207.3542,201.2303,158.8772,0,U,46505,999,32035,.21579E-3,.9627E-4,0
NETSAT-1,2020-068W,2026-07-17T10:45:39.162816,15.35276284,.0002578,97.8756,201.2899,249.1069,110.9897,0,U,46506,999,31994,.19126E-3,.6461E-4,0
NETSAT-2,2020-068X,2026-07-17T16:51:15.166368,15.47232385,.0002528,97.8615,209.4309,197.5532,162.5629,0,U,46507,999,32045,.26287E-3,.13283E-3,0
GREENCUBE (IO-117),2022-080E,2026-07-17T05:19:51.690720,6.42583336,.0009072,70.1407,287.8015,282.9900,76.9746,0,U,53109,999,9399,0,-.3E-7,0
SITRO-AIS 5 (KATYS),2023-091L,2026-07-17T16:21:56.623968,15.30095961,.0010403,97.5040,262.8830,3.5839,356.5473,0,U,57176,999,16900,.20413E-3,.5875E-4,0
SITRO-AIS 6 (CHIRKIN),2023-091AC,2026-07-17T14:25:46.142400,15.26462318,.0010917,97.5048,261.7566,8.2411,351.9005,0,U,57192,999,16892,.19273E-3,.4957E-4,0
SITRO-AIS 8 (ANOKHIN),2023-091AD,2026-07-17T17:01:55.996896,15.32896815,.0009225,97.5036,264.6269,358.8058,1.3160,0,U,57193,999,16912,.2225E-3,.6997E-4,0
SITRO-AIS 7 (FARTUSHNIY),2023-091AE,2026-07-17T16:13:52.592160,15.26136431,.0010884,97.5045,261.6407,9.2316,350.9120,0,U,57194,999,16892,.18704E-3,.4761E-4,0
SITRO-AIS 10 (BURDAEV),2023-091AK,2026-07-17T16:11:34.912032,15.39683985,.0004664,97.5062,269.9680,330.2498,29.8481,0,U,57199,999,16945,.27683E-3,.10851E-3,0
SITRO-AIS 9 (SHCHUKIN),2023-091AM,2026-07-17T17:03:56.891232,15.39168650,.0004932,97.5060,269.7107,330.6820,29.4147,0,U,57201,999,16944,.26443E-3,.10187E-3,0
SITRO-AIS 12 (SMIRENNIY),2023-091AQ,2026-07-17T16:42:03.845376,15.39463186,.00045,97.5073,270.1816,322.7296,37.3637,0,U,57204,999,16946,.2596E-3,.10095E-3,0
SITRO-AIS 11 (SHEFFER),2023-091AU,2026-07-17T16:48:58.392576,15.39909037,.000443,97.5072,270.4528,322.1177,37.9756,0,U,57208,999,16948,.27118E-3,.10706E-3,0
SITRO-AIS 25,2024-039R,2026-07-17T17:24:49.770720,14.93651167,.0142983,95.3890,256.0776,220.5741,138.4760,0,U,59066,999,12928,.12634E-3,.1597E-4,0
SITRO-AIS 26,2024-039S,2026-07-17T17:32:52.230048,14.93442334,.0143311,95.3891,255.9727,221.1716,137.8629,0,U,59067,999,12927,.10939E-3,.1371E-4,0
SITRO-AIS 27,2024-039T,2026-07-17T16:37:37.302240,14.93865854,.0142419,95.3896,256.2324,219.8134,139.2576,0,U,59068,999,12929,.11837E-3,.15E-4,0
SITRO-AIS 28,2024-039U,2026-07-17T17:40:36.562656,14.93900936,.0142288,95.3895,256.3114,219.5105,139.5681,0,U,59071,999,12930,.10616E-3,.1342E-4,0
GRBBETA,2024-128C,2026-07-17T03:36:26.242272,15.06815785,.00367771,61.9898,111.1258,141.0827,219.2924,0,U,60237,999,11078,.12511212E-3,.1679E-4,0
OOV-CUBE (TUBSAT-30),2024-128F,2026-07-17T17:29:30.143040,15.02879435,.0040796,61.9940,119.0668,140.5650,219.8424,0,U,60240,999,11070,.80211E-4,.883E-5,0
ROBUSTA-3A (MEDITERRANEE),2024-128J,2026-07-17T16:35:47.983776,15.12006489,.0037827,61.9863,100.3428,134.1389,226.2828,0,U,60243,999,11103,.21425E-3,.353E-4,0
CROCUBE,2024-247T,2026-07-17T02:02:17.543328,15.50291791,.0007819,44.9718,90.7884,184.7174,175.3645,0,U,62394,999,8798,.4382351E-3,.25129E-3,0
FORESAIL-1 PRIME,2025-276DS,2026-07-17T04:05:35.310912,15.18947700,.00027374,97.4189,270.8955,40.2765,319.8672,0,U,66778,999,3495,.11111914E-3,.2254E-4,0
KNACKSAT-2,1998-067XZ,2026-07-17T05:47:37.449888,15.62548905,.0007952,51.6276,143.0009,335.1166,24.9444,0,U,67683,999,2497,.37883E-3,.34112E-3,0
